NORAD_CAT_ID,OBJECT_NAME,OBJECT_TYPE,EPOCH,MEAN_MOTION,ECCENTRICITY,INCLINATION,RA_OF_ASC_NODE,ARG_OF_PERICENTER,MEAN_ANOMALY,BSTAR,MEAN_MOTION_DOT,MEAN_MOTION_DDOT,TLE_LINE0,TLE_LINE1,TLE_LINE2,SEMIMAJOR_AXIS,PERIOD,APOGEE,PERIGEE,DECAYED
55920.0,STARLINK-5862,PAYLOAD,2024-04-12 15:20:04,14.98339738,0.0002767,70.0007,239.6426,281.1671,78.9176,-9.7985e-05,-1.262e-05,0.0,0 STARLINK-5862,1 55920U 23037G   24103.63894319 -.00001262  00000-0 -97985-4 0  9994,2 55920  70.0007 239.6426 0002767 281.1671  78.9176 14.98339738 60051,6950.163,96.106,573.951,570.105,0.0
55920.0,STARLINK-5862,PAYLOAD,2024-04-13 13:45:57,14.98329914,0.0002922,70.0004,237.2855,280.5188,79.5641,-1.0942e-05,-2.24e-06,0.0,0 STARLINK-5862,1 55920U 23037G   24104.57358303 -.00000224  00000-0 -10942-4 0  9991,2 55920  70.0004 237.2855 0002922 280.5188  79.5641 14.98329914 59852,6950.193,96.107,574.089,570.027,0.0
55920.0,STARLINK-5862,PAYLOAD,2024-04-13 18:34:21,14.98334898,0.0002967,70.0004,236.7801,280.1184,79.964,1.4359e-05,7.8e-07,0.0,0 STARLINK-5862,1 55920U 23037G   24104.77385871  .00000078  00000-0  14359-4 0  9994,2 55920  70.0004 236.7801 0002967 280.1184  79.9640 14.98334898 59881,6950.178,96.107,574.105,569.981,0.0
55920.0,STARLINK-5862,PAYLOAD,2024-04-14 12:11:50,14.98293638,0.0002924,70.0014,234.9303,264.4845,95.5981,0.00063417,7.475e-05,0.0,0 STARLINK-5862,1 55920U 23037G   24105.50822787  .00007475  00000-0  63417-3 0  9994,2 55920  70.0014 234.9303 0002924 264.4845  95.5981 14.98293638 60331,6950.305,96.109,574.203,570.138,0.0
55920.0,STARLINK-5862,PAYLOAD,2024-04-14 18:36:22,14.98332324,0.0002532,70.0017,234.2576,262.4806,97.6065,1.3195e-05,6.5e-07,0.0,0 STARLINK-5862,1 55920U 23037G   24105.77525819  .00000065  00000-0  13195-4 0  9996,2 55920  70.0017 234.2576 0002532 262.4806  97.6065 14.98332324 60375,6950.186,96.107,573.81,570.291,0.0
55920.0,STARLINK-5862,PAYLOAD,2024-04-15 13:49:58,14.98356843,0.0002595,70.0016,232.2362,268.7679,91.3183,-0.00043493,-5.282e-05,0.0,0 STARLINK-5862,1 55920U 23037G   24106.57637512 -.00005282  00000-0 -43493-3 0  9990,2 55920  70.0016 232.2362 0002595 268.7679  91.3183 14.98356843 60151,6950.11,96.105,573.778,570.171,0.0
55920.0,STARLINK-5862,PAYLOAD,2024-04-16 13:51:58,14.98343032,0.0002528,70.001,229.7107,263.2562,96.831,0.00015253,1.728e-05,0.0,0 STARLINK-5862,1 55920U 23037G   24107.57776520  .00001728  00000-0  15253-3 0  9996,2 55920  70.0010 229.7107 0002528 263.2562  96.8310 14.98343032 60642,6950.153,96.106,573.775,570.261,0.0
55920.0,STARLINK-5862,PAYLOAD,2024-04-16 17:04:15,14.98336555,0.0002582,70.001,229.375,266.6225,93.4639,7.2478e-05,7.72e-06,0.0,0 STARLINK-5862,1 55920U 23037G   24107.71129092  .00000772  00000-0  72478-4 0  9999,2 55920  70.0010 229.3750 0002582 266.6225  93.4639 14.98336555 60666,6950.173,96.107,573.832,570.243,0.0
55920.0,STARLINK-5862,PAYLOAD,2024-04-17 12:17:52,14.98326412,0.0003113,69.9998,227.3539,269.7239,90.3564,-4.2871e-05,-6.04e-06,0.0,0 STARLINK-5862,1 55920U 23037G   24108.51241809 -.00000604  00000-0 -42871-4 0  9999,2 55920  69.9998 227.3539 0003113 269.7239  90.3564 14.98326412 60788,6950.204,96.107,574.233,569.905,0.0
55920.0,STARLINK-5862,PAYLOAD,2024-04-17 13:54:01,14.98326335,0.0003216,70.0001,227.1853,268.5458,91.5332,-5.5352e-05,-7.53e-06,0.0,0 STARLINK-5862,1 55920U 23037G   24108.57917837 -.00000753  00000-0 -55352-4 0  9999,2 55920  70.0001 227.1853 0003216 268.5458  91.5332 14.98326335 60451,6950.204,96.107,574.304,569.834,0.0
55920.0,STARLINK-5862,PAYLOAD,2024-04-17 17:06:16,14.98329726,0.0002766,70.0008,226.8493,256.173,103.9122,-6.9676e-06,-1.76e-06,0.0,0 STARLINK-5862,1 55920U 23037G   24108.71269449 -.00000176  00000-0 -69676-5 0  9998,2 55920  70.0008 226.8493 0002766 256.1730 103.9122 14.98329726 60473,6950.194,96.107,573.981,570.136,0.0
55920.0,STARLINK-5862,PAYLOAD,2024-04-18 13:56:02,14.98324643,0.0002549,70.0016,224.6628,259.3087,100.7785,-5.9274e-05,-8e-06,0.0,0 STARLINK-5862,1 55920U 23037G   24109.58058183 -.00000800  00000-0 -59274-4 0  9991,2 55920  70.0016 224.6628 0002549 259.3087 100.7785 14.98324643 60605,6950.209,96.107,573.846,570.303,0.0
55920.0,STARLINK-5862,PAYLOAD,2024-04-18 17:08:18,14.98326477,0.0002539,70.0022,224.3273,256.6857,103.4019,-9.1251e-06,-2.02e-06,0.0,0 STARLINK-5862,1 55920U 23037G   24109.71409921 -.00000202  00000-0 -91251-5 0  9994,2 55920  70.0022 224.3273 0002539 256.6857 103.4019 14.98326477 60965,6950.204,96.107,573.833,570.304,0.0
55920.0,STARLINK-5862,PAYLOAD,2024-04-19 13:58:02,14.98325249,0.0002588,70.0026,222.1397,246.4327,113.656,0.00010058,1.107e-05,0.0,0 STARLINK-5862,1 55920U 23037G   24110.58197731  .00001107  00000-0  10058-3 0  9991,2 55920  70.0026 222.1397 0002588 246.4327 113.6560 14.98325249 60752,6950.208,96.107,573.871,570.274,0.0
55920.0,STARLINK-5862,PAYLOAD,2024-04-19 17:10:18,14.98331551,0.000273,70.0027,221.8051,248.2187,111.8682,0.00018328,2.095e-05,0.0,0 STARLINK-5862,1 55920U 23037G   24110.71549161  .00002095  00000-0  18328-3 0  9999,2 55920  70.0027 221.8051 0002730 248.2187 111.8682 14.98331551 61118,6950.188,96.107,573.95,570.156,0.0
55920.0,STARLINK-5862,PAYLOAD,2024-04-20 12:23:54,14.98338961,0.0002772,70.0017,219.7836,250.877,109.2089,0.00017254,1.967e-05,0.0,0 STARLINK-5862,1 55920U 23037G   24111.51660143  .00001967  00000-0  17254-3 0  9996,2 55920  70.0017 219.7836 0002772 250.8770 109.2089 14.98338961 61234,6950.165,96.106,573.957,570.104,0.0
55920.0,STARLINK-5862,PAYLOAD,2024-04-20 14:00:02,14.98338431,0.000285,70.0012,219.6138,257.6982,102.3858,0.00013736,1.547e-05,0.0,0 STARLINK-5862,1 55920U 23037G   24111.58336272  .00001547  00000-0  13736-3 0  9991,2 55920  70.0012 219.6138 0002850 257.6982 102.3858 14.98338431 60903,6950.167,96.106,574.013,570.051,0.0
55920.0,STARLINK-5862,PAYLOAD,2024-04-20 17:12:21,14.98310543,0.0002386,70.0015,219.2771,288.3521,71.7379,-0.00017198,-2.143e-05,0.0,0 STARLINK-5862,1 55920U 23037G   24111.71691161 -.00002143  00000-0 -17198-3 0  9998,2 55920  70.0015 219.2771 0002386 288.3521  71.7379 14.98310543 61260,6950.253,96.108,573.776,570.46,0.0
55920.0,STARLINK-5862,PAYLOAD,2024-04-21 14:02:06,14.98313713,0.0002358,70.0013,217.0855,274.8366,85.2523,-0.00013033,-1.647e-05,0.0,0 STARLINK-5862,1 55920U 23037G   24112.58479634 -.00001647  00000-0 -13033-3 0  9995,2 55920  70.0013 217.0855 0002358 274.8366  85.2523 14.98313713 61053,6950.243,96.108,573.747,570.469,0.0
55920.0,STARLINK-5862,PAYLOAD,2024-04-21 17:14:22,14.98320971,0.0002256,70.0024,216.753,264.8901,95.2001,-8.2634e-05,-1.078e-05,0.0,0 STARLINK-5862,1 55920U 23037G   24112.71831103 -.00001078  00000-0 -82634-4 0  9995,2 55920  70.0024 216.7530 0002256 264.8901  95.2001 14.98320971 61418,6950.221,96.108,573.654,570.518,0.0
55920.0,STARLINK-5862,PAYLOAD,2024-04-22 10:51:50,14.98327449,0.0002469,70.0017,214.9003,271.0824,89.0052,5.801e-06,-2.4e-07,0.0,0 STARLINK-5862,1 55920U 23037G   24113.45266384 -.00000024  00000-0  58010-5 0  9991,2 55920  70.0017 214.9003 0002469 271.0824  89.0052 14.98327449 61521,6950.201,96.107,573.782,570.35,0.0
55920.0,STARLINK-5862,PAYLOAD,2024-04-22 17:16:21,14.98339578,0.0003258,70.0009,214.224,283.7915,76.2882,0.00020569,2.363e-05,0.0,0 STARLINK-5862,1 55920U 23037G   24113.71968955  .00002363  00000-0  20569-3 0  9996,2 55920  70.0009 214.2240 0003258 283.7915  76.2882 14.98339578 61565,6950.163,96.106,574.293,569.764,0.0
55920.0,STARLINK-5862,PAYLOAD,2024-04-23 12:29:59,14.98327718,0.0002745,70.0013,212.2085,264.8723,95.2123,0.00012804,1.435e-05,0.0,0 STARLINK-5862,1 55920U 23037G   24114.52082374  .00001435  00000-0  12804-3 0  9990,2 55920  70.0013 212.2085 0002745 264.8723  95.2123 14.98327718 61687,6950.2,96.107,573.973,570.157,0.0
55920.0,STARLINK-5862,PAYLOAD,2024-04-23 14:06:06,14.98330765,0.0002556,70.0011,212.04,258.134,101.9533,0.00015323,1.736e-05,0.0,0 STARLINK-5862,1 55920U 23037G   24114.58758061  .00001736  00000-0  15323-3 0  9992,2 55920  70.0011 212.0400 0002556 258.1340 101.9533 14.98330765 61355,6950.191,96.107,573.832,570.279,0.0
55920.0,STARLINK-5862,PAYLOAD,2024-04-23 15:42:14,14.98330789,0.0002381,70.0019,211.8721,248.5477,111.5428,0.00017186,1.958e-05,0.0,0 STARLINK-5862,1 55920U 23037G   24114.65433999  .00001958  00000-0  17186-3 0  9995,2 55920  70.0019 211.8721 0002381 248.5477 111.5428 14.98330789 61363,6950.19,96.107,573.71,570.401,0.0
55920.0,STARLINK-5862,PAYLOAD,2024-04-24 12:32:00,14.98329525,0.0002528,70.0016,209.683,264.9948,95.0922,-4.0942e-05,-5.81e-06,0.0,0 STARLINK-5862,1 55920U 23037G   24115.52222625 -.00000581  00000-0 -40942-4 0  9994,2 55920  70.0016 209.6830 0002528 264.9948  95.0922 14.98329525 61837,6950.194,96.107,573.816,570.302,0.0
55920.0,STARLINK-5862,PAYLOAD,2024-04-24 14:08:08,14.9832613,0.0002208,70.0024,209.5154,253.0028,107.0889,-4.7157e-05,-6.55e-06,0.0,0 STARLINK-5862,1 55920U 23037G   24115.58898850 -.00000655  00000-0 -47157-4 0  9996,2 55920  70.0024 209.5154 0002208 253.0028 107.0889 14.98326130 61506,6950.205,96.107,573.604,570.535,0.0
55920.0,STARLINK-5862,PAYLOAD,2024-04-24 15:44:16,14.98328261,0.0002434,70.0025,209.3478,261.4491,98.6392,-7.1857e-06,-1.79e-06,0.0,0 STARLINK-5862,1 55920U 23037G   24115.65574622 -.00000179  00000-0 -71857-5 0  9998,2 55920  70.0025 209.3478 0002434 261.4491  98.6392 14.98328261 61514,6950.198,96.107,573.755,570.372,0.0
55920.0,STARLINK-5862,PAYLOAD,2024-04-25 12:34:01,14.98328725,0.000268,70.0018,207.1592,261.2609,98.8247,-4.3947e-05,-6.17e-06,0.0,0 STARLINK-5862,1 55920U 23037G   24116.52362515 -.00000617  00000-0 -43947-4 0  9996,2 55920  70.0018 207.1592 0002680 261.2609  98.8247 14.98328725 61988,6950.197,96.107,573.924,570.199,0.0
55920.0,STARLINK-5862,PAYLOAD,2024-04-25 14:10:08,14.98332542,0.0002579,70.0019,206.9908,257.4645,102.6225,1.8313e-06,-7.1e-07,0.0,0 STARLINK-5862,1 55920U 23037G   24116.59038115 -.00000071  00000-0  18313-5 0  9992,2 55920  70.0019 206.9908 0002579 257.4645 102.6225 14.98332542 61657,6950.185,96.107,573.842,570.258,0.0
